{
  "type": "FeatureCollection",
  "features": [
    {
      "type": "Feature",
      "properties": {
        "norad_id": 29486,
        "name": "GPS BIIRM-2 (PRN 31)",
        "group": "gps-ops",
        "lat": -54.359444769983185,
        "lon": 77.47171086124462,
        "alt_km": 20395.593383174604,
        "timestamp": "2025-12-10T09:57:44.958022+00:00",
        "meta_object_name": "GPS BIIRM-2 (PRN 31)",
        "meta_object_id": "2006-042A",
        "meta_epoch": "2025-12-09T13:14:35.270304",
        "meta_mean_motion": 2.00554233,
        "meta_eccentricity": 0.0107363,
        "meta_inclination": 54.6937,
        "meta_ra_of_asc_node": 158.8672,
        "meta_arg_of_pericenter": 51.886,
        "meta_mean_anomaly": 320.6455,
        "meta_ephemeris_type": 0,
        "meta_classification_type": "U",
        "meta_norad_cat_id": 29486,
        "meta_element_set_no": 999,
        "meta_rev_at_epoch": 14059,
        "meta_bstar": 0,
        "meta_mean_motion_dot": 6.7e-07,
        "meta_mean_motion_ddot": 0,
        "tle_line1": "1 29486U 06042A   25343.55179711  .00000067  00000+0  00000+0 0  9995",
        "tle_line2": "2 29486  54.6937 158.8672 0107363  51.8860 320.6455  2.00554233140598"
      },
      "geometry": {
        "type": "Point",
        "coordinates": [
          77.47171086124462,
          -54.359444769983185
        ]
      }
    },
    {
      "type": "Feature",
      "properties": {
        "norad_id": 29601,
        "name": "GPS BIIRM-3 (PRN 12)",
        "group": "gps-ops",
        "lat": -22.32008234052331,
        "lon": -155.22511632299296,
        "alt_km": 20281.07560866861,
        "timestamp": "2025-12-10T09:57:44.958034+00:00",
        "meta_object_name": "GPS BIIRM-3 (PRN 12)",
        "meta_object_id": "2006-052A",
        "meta_epoch": "2025-12-08T22:59:17.672352",
        "meta_mean_motion": 2.00573222,
        "meta_eccentricity": 0.0087721,
        "meta_inclination": 54.9712,
        "meta_ra_of_asc_node": 221.5484,
        "meta_arg_of_pericenter": 87.3994,
        "meta_mean_anomaly": 273.6864,
        "meta_ephemeris_type": 0,
        "meta_classification_type": "U",
        "meta_norad_cat_id": 29601,
        "meta_element_set_no": 999,
        "meta_rev_at_epoch": 13959,
        "meta_bstar": 0,
        "meta_mean_motion_dot": 1e-07,
        "meta_mean_motion_ddot": 0,
        "tle_line1": "1 29601U 06052A   25342.95784343  .00000010  00000+0  00000+0 0  9999",
        "tle_line2": "2 29601  54.9712 221.5484 0087721  87.3994 273.6864  2.00573222139595"
      },
      "geometry": {
        "type": "Point",
        "coordinates": [
          -155.22511632299296,
          -22.32008234052331
        ]
      }
    },
    {
      "type": "Feature",
      "properties": {
        "norad_id": 32260,
        "name": "GPS BIIRM-4 (PRN 15)",
        "group": "gps-ops",
        "lat": 47.458988707943874,
        "lon": -144.580132455143,
        "alt_km": 19794.108866734543,
        "timestamp": "2025-12-10T09:57:44.958046+00:00",
        "meta_object_name": "GPS BIIRM-4 (PRN 15)",
        "meta_object_id": "2007-047A",
        "meta_epoch": "2025-12-09T06:19:25.464288",
        "meta_mean_motion": 2.00564591,
        "meta_eccentricity": 0.016427,
        "meta_inclination": 53.953,
        "meta_ra_of_asc_node": 87.9021,
        "meta_arg_of_pericenter": 85.2089,
        "meta_mean_anomaly": 276.6577,
        "meta_ephemeris_type": 0,
        "meta_classification_type": "U",
        "meta_norad_cat_id": 32260,
        "meta_element_set_no": 999,
        "meta_rev_at_epoch": 13300,
        "meta_bstar": 0,
        "meta_mean_motion_dot": -1.5e-07,
        "meta_mean_motion_ddot": 0,
        "tle_line1": "1 32260U 07047A   25343.26348917 -.00000015  00000+0  00000+0 0  9993",
        "tle_line2": "2 32260  53.9530  87.9021 0164270  85.2089 276.6577  2.00564591133008"
      },
      "geometry": {
        "type": "Point",
        "coordinates": [
          -144.580132455143,
          47.458988707943874
        ]
      }
    },
    {
      "type": "Feature",
      "properties": {
        "norad_id": 32384,
        "name": "GPS BIIRM-5 (PRN 29)",
        "group": "gps-ops",
        "lat": -46.97668869351759,
        "lon": 149.85995282465493,
        "alt_km": 20171.695344709045,
        "timestamp": "2025-12-10T09:57:44.958058+00:00",
        "meta_object_name": "GPS BIIRM-5 (PRN 29)",
        "meta_object_id": "2007-062A",
        "meta_epoch": "2025-12-09T05:13:26.504832",
        "meta_mean_motion": 2.0057704,
        "meta_eccentricity": 0.0032222,
        "meta_inclination": 55.1853,
        "meta_ra_of_asc_node": 281.7872,
        "meta_arg_of_pericenter": 162.5734,
        "meta_mean_anomaly": 295.2792,
        "meta_ephemeris_type": 0,
        "meta_classification_type": "U",
        "meta_norad_cat_id": 32384,
        "meta_element_set_no": 999,
        "meta_rev_at_epoch": 13170,
        "meta_bstar": 0,
        "meta_mean_motion_dot": -5.2e-07,
        "meta_mean_motion_ddot": 0,
        "tle_line1": "1 32384U 07062A   25343.21766788 -.00000052  00000+0  00000+0 0  9993",
        "tle_line2": "2 32384  55.1853 281.7872 0032222 162.5734 295.2792  2.00577040131706"
      },
      "geometry": {
        "type": "Point",
        "coordinates": [
          149.85995282465493,
          -46.97668869351759
        ]
      }
    },
    {
      "type": "Feature",
      "properties": {
        "norad_id": 32711,
        "name": "GPS BIIRM-6 (PRN 07)",
        "group": "gps-ops",
        "lat": 12.366210193970414,
        "lon": -31.55400772516167,
        "alt_km": 20079.110744119123,
        "timestamp": "2025-12-10T09:57:44.958069+00:00",
        "meta_object_name": "GPS BIIRM-6 (PRN 07)",
        "meta_object_id": "2008-012A",
        "meta_epoch": "2025-12-09T04:24:39.813696",
        "meta_mean_motion": 2.00565443,
        "meta_eccentricity": 0.0202305,
        "meta_inclination": 54.4767,
        "meta_ra_of_asc_node": 157.5148,
        "meta_arg_of_pericenter": 244.9065,
        "meta_mean_anomaly": 112.9874,
        "meta_ephemeris_type": 0,
        "meta_classification_type": "U",
        "meta_norad_cat_id": 32711,
        "meta_element_set_no": 999,
        "meta_rev_at_epoch": 12994,
        "meta_bstar": 0,
        "meta_mean_motion_dot": 6.4e-07,
        "meta_mean_motion_ddot": 0,
        "tle_line1": "1 32711U 08012A   25343.18379414  .00000064  00000+0  00000+0 0  9997",
        "tle_line2": "2 32711  54.4767 157.5148 0202305 244.9065 112.9874  2.00565443129948"
      },
      "geometry": {
        "type": "Point",
        "coordinates": [
          -31.55400772516167,
          12.366210193970414
        ]
      }
    },
    {
      "type": "Feature",
      "properties": {
        "norad_id": 35752,
        "name": "GPS BIIRM-8 (PRN 05)",
        "group": "gps-ops",
        "lat": -6.264398868509407,
        "lon": -140.87783592697144,
        "alt_km": 20219.62471492838,
        "timestamp": "2025-12-10T09:57:44.958081+00:00",
        "meta_object_name": "GPS BIIRM-8 (PRN 05)",
        "meta_object_id": "2009-043A",
        "meta_epoch": "2025-12-09T03:40:35.787936",
        "meta_mean_motion": 2.00565819,
        "meta_eccentricity": 0.0051902,
        "meta_inclination": 56.0885,
        "meta_ra_of_asc_node": 34.9246,
        "meta_arg_of_pericenter": 81.9687,
        "meta_mean_anomaly": 273.8421,
        "meta_ephemeris_type": 0,
        "meta_classification_type": "U",
        "meta_norad_cat_id": 35752,
        "meta_element_set_no": 999,
        "meta_rev_at_epoch": 11954,
        "meta_bstar": 0,
        "meta_mean_motion_dot": -8.5e-07,
        "meta_mean_motion_ddot": 0,
        "tle_line1": "1 35752U 09043A   25343.15319199 -.00000085  00000+0  00000+0 0  9995",
        "tle_line2": "2 35752  56.0885  34.9246 0051902  81.9687 273.8421  2.00565819119543"
      },
      "geometry": {
        "type": "Point",
        "coordinates": [
          -140.87783592697144,
          -6.264398868509407
        ]
      }
    },
    {
      "type": "Feature",
      "properties": {
        "norad_id": 36585,
        "name": "GPS BIIF-1  (PRN 25)",
        "group": "gps-ops",
        "lat": -42.22795617789713,
        "lon": 175.46452160716697,
        "alt_km": 20356.669939112606,
        "timestamp": "2025-12-10T09:57:44.958092+00:00",
        "meta_object_name": "GPS BIIF-1  (PRN 25)",
        "meta_object_id": "2010-022A",
        "meta_epoch": "2025-12-09T05:42:57.006720",
        "meta_mean_motion": 2.00552985,
        "meta_eccentricity": 0.0125965,
        "meta_inclination": 54.3007,
        "meta_ra_of_asc_node": 216.2152,
        "meta_arg_of_pericenter": 65.0346,
        "meta_mean_anomaly": 110.6478,
        "meta_ephemeris_type": 0,
        "meta_classification_type": "U",
        "meta_norad_cat_id": 36585,
        "meta_element_set_no": 999,
        "meta_rev_at_epoch": 11378,
        "meta_bstar": 0,
        "meta_mean_motion_dot": 1.4e-07,
        "meta_mean_motion_ddot": 0,
        "tle_line1": "1 36585U 10022A   25343.23815980  .00000014  00000+0  00000+0 0  9998",
        "tle_line2": "2 36585  54.3007 216.2152 0125965  65.0346 110.6478  2.00552985113782"
      },
      "geometry": {
        "type": "Point",
        "coordinates": [
          175.46452160716697,
          -42.22795617789713
        ]
      }
    }
  ]
}